NOAA 17                 
1 27453U 02032A   26065.86952668  .00000340  00000+0  16113-3 0  9998
2 27453  98.8537  30.4694 0010633 290.7585  69.2454 14.26187432232407
NOAA 18                 
1 28654U 05018A   26065.78157006  .00000088  00000+0  69403-4 0  9993
2 28654  98.8160 146.9296 0015331  83.1709 277.1208 14.13710148 71844
NOAA 19                 
1 33591U 09005A   26065.76224369  .00000075  00000+0  64022-4 0  9992
2 33591  98.9612 136.5284 0013004 323.4899  36.5385 14.13456137880015
SUOMI NPP               
1 37849U 11061A   26065.85335903  .00000132  00000+0  83832-4 0  9998
2 37849  98.7867   7.4786 0000403 256.6825 103.4306 14.19542599743922
NOAA 20 (JPSS-1)        
1 43013U 17073A   26065.58607575  .00000127  00000+0  81391-4 0  9996
2 43013  98.7689   6.0041 0001077 141.2468 218.8786 14.19535120429918
NOAA 21 (JPSS-2)        
1 54234U 22150A   26065.83227098  .00000141  00000+0  87603-4 0  9999
2 54234  98.7552   6.1309 0002605 111.5223 248.6231 14.19551353172028
