[{"OBJECT_NAME":"NOAA 17","OBJECT_ID":"2002-032A","EPOCH":"2026-03-06T20:52:07.105152","MEAN_MOTION":14.26187432,"ECCENTRICITY":0.0010633,"INCLINATION":98.8537,"RA_OF_ASC_NODE":30.4694,"ARG_OF_PERICENTER":290.7585,"MEAN_ANOMALY":69.2454,"EPHEMERIS_TYPE":0,"CLASSIFICATION_TYPE":"U","NORAD_CAT_ID":27453,"ELEMENT_SET_NO":999,"REV_AT_EPOCH":23240,"BSTAR":0.00016113,"MEAN_MOTION_DOT":3.4e-6,"MEAN_MOTION_DDOT":0},{"OBJECT_NAME":"NOAA 18","OBJECT_ID":"2005-018A","EPOCH":"2026-03-06T18:45:27.653184","MEAN_MOTION":14.13710148,"ECCENTRICITY":0.0015331,"INCLINATION":98.816,"RA_OF_ASC_NODE":146.9296,"ARG_OF_PERICENTER":83.1709,"MEAN_ANOMALY":277.1208,"EPHEMERIS_TYPE":0,"CLASSIFICATION_TYPE":"U","NORAD_CAT_ID":28654,"ELEMENT_SET_NO":999,"REV_AT_EPOCH":7184,"BSTAR":6.9403e-5,"MEAN_MOTION_DOT":8.8e-7,"MEAN_MOTION_DDOT":0},{"OBJECT_NAME":"NOAA 19","OBJECT_ID":"2009-005A","EPOCH":"2026-03-06T18:17:37.854816","MEAN_MOTION":14.13456137,"ECCENTRICITY":0.0013004,"INCLINATION":98.9612,"RA_OF_ASC_NODE":136.5284,"ARG_OF_PERICENTER":323.4899,"MEAN_ANOMALY":36.5385,"EPHEMERIS_TYPE":0,"CLASSIFICATION_TYPE":"U","NORAD_CAT_ID":33591,"ELEMENT_SET_NO":999,"REV_AT_EPOCH":88001,"BSTAR":6.4022e-5,"MEAN_MOTION_DOT":7.5e-7,"MEAN_MOTION_DDOT":0},{"OBJECT_NAME":"SUOMI NPP","OBJECT_ID":"2011-061A","EPOCH":"2026-03-06T20:28:50.220192","MEAN_MOTION":14.19542599,"ECCENTRICITY":4.03e-5,"INCLINATION":98.7867,"RA_OF_ASC_NODE":7.4786,"ARG_OF_PERICENTER":256.6825,"MEAN_ANOMALY":103.4306,"EPHEMERIS_TYPE":0,"CLASSIFICATION_TYPE":"U","NORAD_CAT_ID":37849,"ELEMENT_SET_NO":999,"REV_AT_EPOCH":74392,"BSTAR":8.3832e-5,"MEAN_MOTION_DOT":1.32e-6,"MEAN_MOTION_DDOT":0},{"OBJECT_NAME":"NOAA 20 (JPSS-1)","OBJECT_ID":"2017-073A","EPOCH":"2026-03-06T14:03:56.944800","MEAN_MOTION":14.1953512,"ECCENTRICITY":0.00010779,"INCLINATION":98.7689,"RA_OF_ASC_NODE":6.0041,"ARG_OF_PERICENTER":141.2468,"MEAN_ANOMALY":218.8786,"EPHEMERIS_TYPE":0,"CLASSIFICATION_TYPE":"U","NORAD_CAT_ID":43013,"ELEMENT_SET_NO":999,"REV_AT_EPOCH":42991,"BSTAR":8.1391e-5,"MEAN_MOTION_DOT":1.27e-6,"MEAN_MOTION_DDOT":0},{"OBJECT_NAME":"NOAA 21 (JPSS-2)","OBJECT_ID":"2022-150A","EPOCH":"2026-03-06T19:58:28.212672","MEAN_MOTION":14.19551353,"ECCENTRICITY":0.0002605,"INCLINATION":98.7552,"RA_OF_ASC_NODE":6.1309,"ARG_OF_PERICENTER":111.5223,"MEAN_ANOMALY":248.6231,"EPHEMERIS_TYPE":0,"CLASSIFICATION_TYPE":"U","NORAD_CAT_ID":54234,"ELEMENT_SET_NO":999,"REV_AT_EPOCH":17202,"BSTAR":8.7603e-5,"MEAN_MOTION_DOT":1.41e-6,"MEAN_MOTION_DDOT":0}]
